[{"OBJECT_NAME":"STARLINK-31434","OBJECT_ID":"2024-046Q","EPOCH":"2026-03-09T13:18:32.414976","MEAN_MOTION":15.30184588,"ECCENTRICITY":8.56e-5,"INCLINATION":53.1614,"RA_OF_ASC_NODE":155.6266,"ARG_OF_PERICENTER":90.4307,"MEAN_ANOMALY":269.6792,"EPHEMERIS_TYPE":0,"CLASSIFICATION_TYPE":"U","NORAD_CAT_ID":59215,"ELEMENT_SET_NO":999,"REV_AT_EPOCH":11302,"BSTAR":5.1971e-5,"MEAN_MOTION_DOT":1.18e-5,"MEAN_MOTION_DDOT":0},{"OBJECT_NAME":"OBJECT F","OBJECT_ID":"2021-022F","EPOCH":"2026-03-09T23:37:37.165152","MEAN_MOTION":15.31317672,"ECCENTRICITY":0.00120882,"INCLINATION":97.3982,"RA_OF_ASC_NODE":329.8375,"ARG_OF_PERICENTER":85.9268,"MEAN_ANOMALY":274.3355,"EPHEMERIS_TYPE":0,"CLASSIFICATION_TYPE":"U","NORAD_CAT_ID":47937,"ELEMENT_SET_NO":999,"REV_AT_EPOCH":27452,"BSTAR":0.00038690553,"MEAN_MOTION_DOT":0.00011656,"MEAN_MOTION_DDOT":0}]
